ONEWEB-0228             
1 48780U 21045P   23323.77687379 -.00000030  00000+0 -11363-3 0  9997
2 48780  87.8984  86.3986 0001519 101.4942 258.6358 13.15550156121812
